STARLINK-37618          
1 69228U 26115T   26161.32133249 -.00349307  00000+0 -22308-2 0  9999
2 69228  97.2831 178.4414 0001903 130.0359 230.1074 15.77211561  3604
STARLINK-37679          
1 69229U 26115U   26161.00489257 -.00604724  00000+0 -35241-2 0  9995
2 69229  97.2827 178.1056 0002098 155.4085 204.7284 15.79899765  3556
STARLINK-37746          
1 69230U 26115V   26160.68997865 -.01042396  00000+0 -65292-2 0  9990
2 69230  97.2830 177.7685 0001775 139.9462 220.1937 15.79440464  3502
STARLINK-37557          
1 69231U 26115W   26160.49695365  .00456594  00000+0  22562-2 0  9999
2 69231  97.2834 177.5728 0003750 332.0612  28.0454 15.80870270  3470
STARLINK-37745          
1 69232U 26115X   26161.31554618  .00289457  00000+0  14538-2 0  9993
2 69232  97.2828 178.4491 0001721  98.9159 261.2305 15.80944034  3602
STARLINK-37739          
1 69233U 26115Y   26161.25003472 -.02622137  00000+0 -22209-1 0  9997
2 69233  97.2840 178.3569 0001368  96.5025 200.4114 15.72971292  3571
STARLINK-37755          
1 69234U 26115Z   26161.27085536  .00198356  00000+0  12976-2 0  9999
2 69234  97.2843 178.3568 0001163  85.7048 274.4350 15.75233997  3593
TJS-24                  
1 69235U 26116A   26161.28629306 -.00000214  00000+0  00000+0 0  9999
2 69235   0.0235 248.0783 0000606 172.7528  31.1882  1.00270311   168
STARLINK-37665          
1 69238U 26117A   26161.25003472 -.00004394  00000+0 -17731-4 0  9998
2 69238  53.1623 278.4447 0000955  67.3662  29.7739 15.81984123  3052
STARLINK-37558          
1 69239U 26117B   26161.25003472  .00025006  00000+0  12322-3 0  9990
2 69239  53.1586 278.4339 0000987  79.7280  22.7749 15.82016388  3053
STARLINK-37680          
1 69240U 26117C   26161.25003472  .00098585  00000+0  47341-3 0  9993
2 69240  53.1589 278.4163 0001104  64.0013  46.7754 15.81939808  3047
STARLINK-37742          
1 69241U 26117D   26161.25003472  .00093535  00000+0  44953-3 0  9990
2 69241  53.1589 278.3957 0000856  83.8246  37.1173 15.81943210  3050
STARLINK-37718          
1 69242U 26117E   26161.25003472  .00095639  00000+0  45948-3 0  9993
2 69242  53.1590 278.3807 0000963 100.2989  27.6757 15.81941989  3046
STARLINK-37735          
1 69243U 26117F   26161.25003472  .00105433  00000+0  50575-3 0  9990
2 69243  53.1590 278.3793 0000991  72.3668  56.2158 15.81936070  3054
STARLINK-37757          
1 69244U 26117G   26161.25003472  .00054469  00000+0  26463-3 0  9992
2 69244  53.1590 278.3513 0000574  59.9867  82.2898 15.81922823  3055
STARLINK-37767          
1 69245U 26117H   26161.25003472  .00097719  00000+0  46933-3 0  9992
2 69245  53.1585 278.3006 0001167  90.5408  75.9928 15.81939586  3055
STARLINK-35759          
1 69246U 26117J   26161.25003472  .00172789  00000+0  82112-3 0  9993
2 69246  53.1587 278.2925 0000943  93.4237  76.9633 15.81913212  3108
STARLINK-37238          
1 69247U 26117K   26161.25003472  .00029962  00000+0  14713-3 0  9990
2 69247  53.1584 278.2390 0001101  89.7872 105.9416 15.81979822  3057
STARLINK-37412          
1 69248U 26117L   26161.25003472  .00073195  00000+0  35302-3 0  9995
2 69248  53.1582 278.1997 0001181  89.1467 125.7857 15.81962783  3125
STARLINK-37398          
1 69249U 26117M   26161.25003472  .00094291  00000+0  47703-3 0  9994
2 69249  53.1586 278.1925 0000781  80.0541 138.1866 15.80828887  3122
STARLINK-37499          
1 69250U 26117N   26161.25003472  .00031795  00000+0  15586-3 0  9990
2 69250  53.1586 278.1789 0001041  77.3783 147.3288 15.81984402  3126
STARLINK-37489          
1 69251U 26117P   26161.25003472 -.00006577  00000+0 -28241-4 0  9996
2 69251  53.1609 278.1582 0000415  98.0478 136.6828 15.81993844  3120
STARLINK-37434          
1 69252U 26117Q   26161.25003472  .00080471  00000+0  38751-3 0  9996
2 69252  53.1583 278.1228 0001101  95.6422 156.0229 15.81959274  3056
STARLINK-37368          
1 69253U 26117R   26161.25003472  .00102232  00000+0  49043-3 0  9993
2 69253  53.1583 278.0435 0000575  52.4397 237.6623 15.81946983  3127
STARLINK-37517          
1 69254U 26117S   26161.25003472  .00073946  00000+0  35690-3 0  9996
2 69254  53.1579 278.0276 0001060  69.7795 227.8522 15.81942999  3121
STARLINK-37378          
1 69255U 26117T   26161.25003472  .00102650  00000+0  49251-3 0  9990
2 69255  53.1585 278.0240 0000564  61.6721 237.8378 15.81942011  3044
STARLINK-37396          
1 69256U 26117U   26161.25003472  .00122223  00000+0  58476-3 0  9998
2 69256  53.1578 277.9940 0000639  68.7885 244.6966 15.81930550  3127
STARLINK-37508          
1 69257U 26117V   26161.25003472 -.01929522  00000+0 -97298-2 0  9993
2 69257  53.1574 277.9686 0000759  66.2252 259.0535 15.83887540  3040
STARLINK-37276          
1 69258U 26117W   26161.25003472 -.01587885  00000+0 -59304-2 0  9992
2 69258  53.1550 277.7471 0000810  82.8393 349.0662 15.89827466  3052
