OBJECT_NAME,OBJECT_ID,EPOCH,MEAN_MOTION,ECCENTRICITY,INCLINATION,RA_OF_ASC_NODE,ARG_OF_PERICENTER,MEAN_ANOMALY,EPHEMERIS_TYPE,CLASSIFICATION_TYPE,NORAD_CAT_ID,ELEMENT_SET_NO,REV_AT_EPOCH,BSTAR,MEAN_MOTION_DOT,MEAN_MOTION_DDOT
STARLINK-37618,2026-115T,2026-06-10T07:42:43.127136,15.77211561,.00019032,97.2831,178.4414,130.0359,230.1074,0,U,69228,999,360,-.22308241E-2,-.349307E-2,0
STARLINK-37679,2026-115U,2026-06-10T00:07:02.718048,15.79899765,.00020989,97.2827,178.1056,155.4085,204.7284,0,U,69229,999,355,-.35240981E-2,-.604724E-2,0
STARLINK-37746,2026-115V,2026-06-09T16:33:34.155360,15.79440464,.00017751,97.2830,177.7685,139.9462,220.1937,0,U,69230,999,350,-.6529213E-2,-.1042396E-1,0
STARLINK-37557,2026-115W,2026-06-09T11:55:36.795360,15.80870270,.00037506,97.2834,177.5728,332.0612,28.0454,0,U,69231,999,347,.22562327E-2,.456594E-2,0
STARLINK-37745,2026-115X,2026-06-10T07:34:23.189952,15.80944034,.00017213,97.2828,178.4491,98.9159,261.2305,0,U,69232,999,360,.14538025E-2,.289457E-2,0
STARLINK-37739,2026-115Y,2026-06-10T06:00:02.999808,15.72971292,.00013682,97.2840,178.3569,96.5025,200.4114,0,U,69233,999,357,-.22208745E-1,-.2622137E-1,0
STARLINK-37755,2026-115Z,2026-06-10T06:30:01.903104,15.75233997,.00011635,97.2843,178.3568,85.7048,274.4350,0,U,69234,999,359,.12976138E-2,.198356E-2,0
TJS-24,2026-116A,2026-06-10T06:52:15.720384,1.00270311,.0000606,0.0235,248.0783,172.7528,31.1882,0,U,69235,999,16,0,-.214E-5,0
STARLINK-37665,2026-117A,2026-06-10T06:00:02.999808,15.81984123,.0000955,53.1623,278.4447,67.3662,29.7739,0,U,69238,999,305,-.17730769E-4,-.4394E-4,0
STARLINK-37558,2026-117B,2026-06-10T06:00:02.999808,15.82016388,.00009878,53.1586,278.4339,79.7280,22.7749,0,U,69239,999,305,.12321908E-3,.25006E-3,0
STARLINK-37680,2026-117C,2026-06-10T06:00:02.999808,15.81939808,.00011041,53.1589,278.4163,64.0013,46.7754,0,U,69240,999,304,.47340977E-3,.98585E-3,0
STARLINK-37742,2026-117D,2026-06-10T06:00:02.999808,15.81943210,.00008564,53.1589,278.3957,83.8246,37.1173,0,U,69241,999,305,.44952655E-3,.93535E-3,0
STARLINK-37718,2026-117E,2026-06-10T06:00:02.999808,15.81941989,.00009631,53.1590,278.3807,100.2989,27.6757,0,U,69242,999,304,.45947776E-3,.95639E-3,0
STARLINK-37735,2026-117F,2026-06-10T06:00:02.999808,15.81936070,.0000991,53.1590,278.3793,72.3668,56.2158,0,U,69243,999,305,.50574547E-3,.105433E-2,0
STARLINK-37757,2026-117G,2026-06-10T06:00:02.999808,15.81922823,.00005743,53.1590,278.3513,59.9867,82.2898,0,U,69244,999,305,.2646333E-3,.54469E-3,0
STARLINK-37767,2026-117H,2026-06-10T06:00:02.999808,15.81939586,.0001167,53.1585,278.3006,90.5408,75.9928,0,U,69245,999,305,.4693313E-3,.97719E-3,0
STARLINK-35759,2026-117J,2026-06-10T06:00:02.999808,15.81913212,.0000943,53.1587,278.2925,93.4237,76.9633,0,U,69246,999,310,.82112174E-3,.172789E-2,0
STARLINK-37238,2026-117K,2026-06-10T06:00:02.999808,15.81979822,.00011013,53.1584,278.2390,89.7872,105.9416,0,U,69247,999,305,.14713022E-3,.29962E-3,0
STARLINK-37412,2026-117L,2026-06-10T06:00:02.999808,15.81962783,.0001181,53.1582,278.1997,89.1467,125.7857,0,U,69248,999,312,.35301914E-3,.73195E-3,0
STARLINK-37398,2026-117M,2026-06-10T06:00:02.999808,15.80828887,.00007818,53.1586,278.1925,80.0541,138.1866,0,U,69249,999,312,.47702786E-3,.94291E-3,0
STARLINK-37499,2026-117N,2026-06-10T06:00:02.999808,15.81984402,.00010415,53.1586,278.1789,77.3783,147.3288,0,U,69250,999,312,.15585559E-3,.31795E-3,0
STARLINK-37489,2026-117P,2026-06-10T06:00:02.999808,15.81993844,.00004151,53.1609,278.1582,98.0478,136.6828,0,U,69251,999,312,-.28241411E-4,-.6577E-4,0
STARLINK-37434,2026-117Q,2026-06-10T06:00:02.999808,15.81959274,.00011015,53.1583,278.1228,95.6422,156.0229,0,U,69252,999,305,.38751127E-3,.80471E-3,0
STARLINK-37368,2026-117R,2026-06-10T06:00:02.999808,15.81946983,.00005753,53.1583,278.0435,52.4397,237.6623,0,U,69253,999,312,.49042824E-3,.102232E-2,0
STARLINK-37517,2026-117S,2026-06-10T06:00:02.999808,15.81942999,.00010604,53.1579,278.0276,69.7795,227.8522,0,U,69254,999,312,.35690488E-3,.73946E-3,0
STARLINK-37378,2026-117T,2026-06-10T06:00:02.999808,15.81942011,.00005645,53.1585,278.0240,61.6721,237.8378,0,U,69255,999,304,.49251104E-3,.10265E-2,0
STARLINK-37396,2026-117U,2026-06-10T06:00:02.999808,15.81930550,.00006399,53.1578,277.9940,68.7885,244.6966,0,U,69256,999,312,.58475835E-3,.122223E-2,0
STARLINK-37508,2026-117V,2026-06-10T06:00:02.999808,15.83887540,.00007592,53.1574,277.9686,66.2252,259.0535,0,U,69257,999,304,-.97297728E-2,-.1929522E-1,0
STARLINK-37276,2026-117W,2026-06-10T06:00:02.999808,15.89827466,.00008101,53.1550,277.7471,82.8393,349.0662,0,U,69258,999,305,-.59303725E-2,-.1587885E-1,0
